STARLINK-36406          
1 67923U 26036V   26064.58335648  .00126180  00000+0  59502-3 0  9995
2 67923  42.9943 274.7708 0001753 266.4572  33.1489 15.81945247  2986
STARLINK-36714          
1 67924U 26036W   26064.58335648  .00109334  00000+0  51685-3 0  9992
2 67924  42.9943 274.7598 0002244 262.2658  41.6138 15.81947132  2989
STARLINK-36726          
1 67925U 26036X   26064.58335648  .00104900  00000+0  49632-3 0  9996
2 67925  42.9953 274.7490 0001850 255.3489  52.8098 15.81944960  2984
STARLINK-36758          
1 67926U 26036Y   26064.58335648  .00094841  00000+0  44918-3 0  9991
2 67926  42.9955 274.7379 0002010 265.9054  46.5111 15.81959358  2980
STARLINK-36728          
1 67927U 26036Z   26064.58335648  .00067246  00000+0  32047-3 0  9991
2 67927  42.9966 274.7162 0001927 277.7337  43.2492 15.81944070  2985
STARLINK-36771          
1 67928U 26036AA  26064.58335648  .00085402  00000+0  40528-3 0  9999
2 67928  42.9950 274.7269 0002073 261.9753  54.7241 15.81953164  2980
STARLINK-36809          
1 67929U 26036AB  26064.58335648  .00103271  00000+0  48861-3 0  9993
2 67929  42.9941 274.7055 0001892 263.1096  62.1359 15.81950643  2988
STARLINK-36865          
1 67930U 26036AC  26064.58335648  .00063145  00000+0  30081-3 0  9995
2 67930  42.9953 274.6839 0001948 270.8075  62.9718 15.81973096  2980
STARLINK-36781          
1 67931U 26036AD  26064.58335648  .00090668  00000+0  42969-3 0  9994
2 67931  42.9957 274.6947 0001687 266.2918  63.2178 15.81962119  2988
STARLINK-36301          
1 67932U 26037A   26064.58335648 -.01551934  67506-3 -45439-2 0  9999
2 67932  42.9995 223.8906 0001232 269.4946 288.6695 15.91933253  2440
STARLINK-36852          
1 67933U 26037B   26064.58335648 -.01539943  66640-3 -44759-2 0  9998
2 67933  42.9998 223.8847 0001069 274.3388 286.0919 15.92072638  2534
STARLINK-36861          
1 67934U 26037C   26064.58335648 -.01551563  67656-3 -44785-2 0  9998
2 67934  42.9997 223.8777 0001208 272.1757 291.1611 15.92207281  2537
STARLINK-36860          
1 67935U 26037D   26064.58335648 -.01563383  68693-3 -44821-2 0  9995
2 67935  42.9995 223.8704 0001530 275.1447 291.1900 15.92338167  2532
STARLINK-36848          
1 67936U 26037E   26064.58335648 -.01553145  68032-3 -43954-2 0  9994
2 67936  42.9996 223.8554 0001078 265.6869 306.3714 15.92585490  2531
STARLINK-36370          
1 67937U 26037F   26064.58335648 -.01556564  68219-3 -44358-2 0  9999
2 67937  42.9998 223.8628 0001469 272.2116 297.1832 15.92452237  2539
STARLINK-36371          
1 67938U 26037G   26064.58335648 -.01556546  68401-3 -43727-2 0  9992
2 67938  42.9996 223.8489 0001164 269.5079 305.0057 15.92726450  2531
