[{"OBJECT_NAME":"STARLINK-36406","OBJECT_ID":"2026-036V","EPOCH":"2026-03-05T14:00:01.999872","MEAN_MOTION":15.81945247,"ECCENTRICITY":0.00017532,"INCLINATION":42.9943,"RA_OF_ASC_NODE":274.7708,"ARG_OF_PERICENTER":266.4572,"MEAN_ANOMALY":33.1489,"EPHEMERIS_TYPE":0,"CLASSIFICATION_TYPE":"U","NORAD_CAT_ID":67923,"ELEMENT_SET_NO":999,"REV_AT_EPOCH":298,"BSTAR":0.00059501542,"MEAN_MOTION_DOT":0.0012618,"MEAN_MOTION_DDOT":0},{"OBJECT_NAME":"STARLINK-36714","OBJECT_ID":"2026-036W","EPOCH":"2026-03-05T14:00:01.999872","MEAN_MOTION":15.81947132,"ECCENTRICITY":0.0002244,"INCLINATION":42.9943,"RA_OF_ASC_NODE":274.7598,"ARG_OF_PERICENTER":262.2658,"MEAN_ANOMALY":41.6138,"EPHEMERIS_TYPE":0,"CLASSIFICATION_TYPE":"U","NORAD_CAT_ID":67924,"ELEMENT_SET_NO":999,"REV_AT_EPOCH":298,"BSTAR":0.00051685211,"MEAN_MOTION_DOT":0.00109334,"MEAN_MOTION_DDOT":0},{"OBJECT_NAME":"STARLINK-36726","OBJECT_ID":"2026-036X","EPOCH":"2026-03-05T14:00:01.999872","MEAN_MOTION":15.8194496,"ECCENTRICITY":0.00018505,"INCLINATION":42.9953,"RA_OF_ASC_NODE":274.749,"ARG_OF_PERICENTER":255.3489,"MEAN_ANOMALY":52.8098,"EPHEMERIS_TYPE":0,"CLASSIFICATION_TYPE":"U","NORAD_CAT_ID":67925,"ELEMENT_SET_NO":999,"REV_AT_EPOCH":298,"BSTAR":0.00049631708,"MEAN_MOTION_DOT":0.001049,"MEAN_MOTION_DDOT":0},{"OBJECT_NAME":"STARLINK-36758","OBJECT_ID":"2026-036Y","EPOCH":"2026-03-05T14:00:01.999872","MEAN_MOTION":15.81959358,"ECCENTRICITY":0.00020101,"INCLINATION":42.9955,"RA_OF_ASC_NODE":274.7379,"ARG_OF_PERICENTER":265.9054,"MEAN_ANOMALY":46.5111,"EPHEMERIS_TYPE":0,"CLASSIFICATION_TYPE":"U","NORAD_CAT_ID":67926,"ELEMENT_SET_NO":999,"REV_AT_EPOCH":298,"BSTAR":0.00044918155,"MEAN_MOTION_DOT":0.00094841,"MEAN_MOTION_DDOT":0},{"OBJECT_NAME":"STARLINK-36728","OBJECT_ID":"2026-036Z","EPOCH":"2026-03-05T14:00:01.999872","MEAN_MOTION":15.8194407,"ECCENTRICITY":0.00019276,"INCLINATION":42.9966,"RA_OF_ASC_NODE":274.7162,"ARG_OF_PERICENTER":277.7337,"MEAN_ANOMALY":43.2492,"EPHEMERIS_TYPE":0,"CLASSIFICATION_TYPE":"U","NORAD_CAT_ID":67927,"ELEMENT_SET_NO":999,"REV_AT_EPOCH":298,"BSTAR":0.00032046679,"MEAN_MOTION_DOT":0.00067246,"MEAN_MOTION_DDOT":0},{"OBJECT_NAME":"STARLINK-36771","OBJECT_ID":"2026-036AA","EPOCH":"2026-03-05T14:00:01.999872","MEAN_MOTION":15.81953164,"ECCENTRICITY":0.00020739,"INCLINATION":42.995,"RA_OF_ASC_NODE":274.7269,"ARG_OF_PERICENTER":261.9753,"MEAN_ANOMALY":54.7241,"EPHEMERIS_TYPE":0,"CLASSIFICATION_TYPE":"U","NORAD_CAT_ID":67928,"ELEMENT_SET_NO":999,"REV_AT_EPOCH":298,"BSTAR":0.00040527921,"MEAN_MOTION_DOT":0.00085402,"MEAN_MOTION_DDOT":0},{"OBJECT_NAME":"STARLINK-36809","OBJECT_ID":"2026-036AB","EPOCH":"2026-03-05T14:00:01.999872","MEAN_MOTION":15.81950643,"ECCENTRICITY":0.0001892,"INCLINATION":42.9941,"RA_OF_ASC_NODE":274.7055,"ARG_OF_PERICENTER":263.1096,"MEAN_ANOMALY":62.1359,"EPHEMERIS_TYPE":0,"CLASSIFICATION_TYPE":"U","NORAD_CAT_ID":67929,"ELEMENT_SET_NO":999,"REV_AT_EPOCH":298,"BSTAR":0.00048860658,"MEAN_MOTION_DOT":0.00103271,"MEAN_MOTION_DDOT":0},{"OBJECT_NAME":"STARLINK-36865","OBJECT_ID":"2026-036AC","EPOCH":"2026-03-05T14:00:01.999872","MEAN_MOTION":15.81973096,"ECCENTRICITY":0.00019489,"INCLINATION":42.9953,"RA_OF_ASC_NODE":274.6839,"ARG_OF_PERICENTER":270.8075,"MEAN_ANOMALY":62.9718,"EPHEMERIS_TYPE":0,"CLASSIFICATION_TYPE":"U","NORAD_CAT_ID":67930,"ELEMENT_SET_NO":999,"REV_AT_EPOCH":298,"BSTAR":0.0003008139,"MEAN_MOTION_DOT":0.00063145,"MEAN_MOTION_DDOT":0},{"OBJECT_NAME":"STARLINK-36781","OBJECT_ID":"2026-036AD","EPOCH":"2026-03-05T14:00:01.999872","MEAN_MOTION":15.81962119,"ECCENTRICITY":0.00016873,"INCLINATION":42.9957,"RA_OF_ASC_NODE":274.6947,"ARG_OF_PERICENTER":266.2918,"MEAN_ANOMALY":63.2178,"EPHEMERIS_TYPE":0,"CLASSIFICATION_TYPE":"U","NORAD_CAT_ID":67931,"ELEMENT_SET_NO":999,"REV_AT_EPOCH":298,"BSTAR":0.00042969051,"MEAN_MOTION_DOT":0.00090668,"MEAN_MOTION_DDOT":0},{"OBJECT_NAME":"STARLINK-36301","OBJECT_ID":"2026-037A","EPOCH":"2026-03-05T14:00:01.999872","MEAN_MOTION":15.91933253,"ECCENTRICITY":0.00012321,"INCLINATION":42.9995,"RA_OF_ASC_NODE":223.8906,"ARG_OF_PERICENTER":269.4946,"MEAN_ANOMALY":288.6695,"EPHEMERIS_TYPE":0,"CLASSIFICATION_TYPE":"U","NORAD_CAT_ID":67932,"ELEMENT_SET_NO":999,"REV_AT_EPOCH":244,"BSTAR":-0.004543934,"MEAN_MOTION_DOT":-0.01551934,"MEAN_MOTION_DDOT":0.00067505996},{"OBJECT_NAME":"STARLINK-36852","OBJECT_ID":"2026-037B","EPOCH":"2026-03-05T14:00:01.999872","MEAN_MOTION":15.92072638,"ECCENTRICITY":0.00010696,"INCLINATION":42.9998,"RA_OF_ASC_NODE":223.8847,"ARG_OF_PERICENTER":274.3388,"MEAN_ANOMALY":286.0919,"EPHEMERIS_TYPE":0,"CLASSIFICATION_TYPE":"U","NORAD_CAT_ID":67933,"ELEMENT_SET_NO":999,"REV_AT_EPOCH":253,"BSTAR":-0.0044758931,"MEAN_MOTION_DOT":-0.01539943,"MEAN_MOTION_DDOT":0.00066640385},{"OBJECT_NAME":"STARLINK-36861","OBJECT_ID":"2026-037C","EPOCH":"2026-03-05T14:00:01.999872","MEAN_MOTION":15.92207281,"ECCENTRICITY":0.00012082,"INCLINATION":42.9997,"RA_OF_ASC_NODE":223.8777,"ARG_OF_PERICENTER":272.1757,"MEAN_ANOMALY":291.1611,"EPHEMERIS_TYPE":0,"CLASSIFICATION_TYPE":"U","NORAD_CAT_ID":67934,"ELEMENT_SET_NO":999,"REV_AT_EPOCH":253,"BSTAR":-0.0044784746,"MEAN_MOTION_DOT":-0.01551563,"MEAN_MOTION_DDOT":0.00067655654},{"OBJECT_NAME":"STARLINK-36860","OBJECT_ID":"2026-037D","EPOCH":"2026-03-05T14:00:01.999872","MEAN_MOTION":15.92338167,"ECCENTRICITY":0.00015301,"INCLINATION":42.9995,"RA_OF_ASC_NODE":223.8704,"ARG_OF_PERICENTER":275.1447,"MEAN_ANOMALY":291.19,"EPHEMERIS_TYPE":0,"CLASSIFICATION_TYPE":"U","NORAD_CAT_ID":67935,"ELEMENT_SET_NO":999,"REV_AT_EPOCH":253,"BSTAR":-0.004482094,"MEAN_MOTION_DOT":-0.01563383,"MEAN_MOTION_DDOT":0.00068693299},{"OBJECT_NAME":"STARLINK-36848","OBJECT_ID":"2026-037E","EPOCH":"2026-03-05T14:00:01.999872","MEAN_MOTION":15.9258549,"ECCENTRICITY":0.00010786,"INCLINATION":42.9996,"RA_OF_ASC_NODE":223.8554,"ARG_OF_PERICENTER":265.6869,"MEAN_ANOMALY":306.3714,"EPHEMERIS_TYPE":0,"CLASSIFICATION_TYPE":"U","NORAD_CAT_ID":67936,"ELEMENT_SET_NO":999,"REV_AT_EPOCH":253,"BSTAR":-0.004395388,"MEAN_MOTION_DOT":-0.01553145,"MEAN_MOTION_DDOT":0.00068032471},{"OBJECT_NAME":"STARLINK-36370","OBJECT_ID":"2026-037F","EPOCH":"2026-03-05T14:00:01.999872","MEAN_MOTION":15.92452237,"ECCENTRICITY":0.00014695,"INCLINATION":42.9998,"RA_OF_ASC_NODE":223.8628,"ARG_OF_PERICENTER":272.2116,"MEAN_ANOMALY":297.1832,"EPHEMERIS_TYPE":0,"CLASSIFICATION_TYPE":"U","NORAD_CAT_ID":67937,"ELEMENT_SET_NO":999,"REV_AT_EPOCH":253,"BSTAR":-0.0044358117,"MEAN_MOTION_DOT":-0.01556564,"MEAN_MOTION_DDOT":0.00068219268},{"OBJECT_NAME":"STARLINK-36371","OBJECT_ID":"2026-037G","EPOCH":"2026-03-05T14:00:01.999872","MEAN_MOTION":15.9272645,"ECCENTRICITY":0.00011645,"INCLINATION":42.9996,"RA_OF_ASC_NODE":223.8489,"ARG_OF_PERICENTER":269.5079,"MEAN_ANOMALY":305.0057,"EPHEMERIS_TYPE":0,"CLASSIFICATION_TYPE":"U","NORAD_CAT_ID":67938,"ELEMENT_SET_NO":999,"REV_AT_EPOCH":253,"BSTAR":-0.0043726519,"MEAN_MOTION_DOT":-0.01556546,"MEAN_MOTION_DDOT":0.00068400578}]
